[{"OBJECT_NAME":"STARLINK-11622 [DTC]","OBJECT_ID":"2025-048E","EPOCH":"2025-10-16T23:18:52.756416","MEAN_MOTION":15.71012877,"ECCENTRICITY":0.0002523,"INCLINATION":42.9997,"RA_OF_ASC_NODE":106.5754,"ARG_OF_PERICENTER":284.7691,"MEAN_ANOMALY":75.2897,"EPHEMERIS_TYPE":0,"CLASSIFICATION_TYPE":"U","NORAD_CAT_ID":63187,"ELEMENT_SET_NO":999,"REV_AT_EPOCH":3591,"BSTAR":0.003596,"MEAN_MOTION_DOT":0.00492953,"MEAN_MOTION_DDOT":0},{"OBJECT_NAME":"STARLINK-11642 [DTC]","OBJECT_ID":"2025-048F","EPOCH":"2025-10-16T13:38:55.838112","MEAN_MOTION":15.70885454,"ECCENTRICITY":0.0001842,"INCLINATION":42.9995,"RA_OF_ASC_NODE":108.7038,"ARG_OF_PERICENTER":229.921,"MEAN_ANOMALY":130.1496,"EPHEMERIS_TYPE":0,"CLASSIFICATION_TYPE":"U","NORAD_CAT_ID":63188,"ELEMENT_SET_NO":999,"REV_AT_EPOCH":3585,"BSTAR":0.0020027,"MEAN_MOTION_DOT":0.00265402,"MEAN_MOTION_DDOT":0},{"OBJECT_NAME":"STARLINK-11639 [DTC]","OBJECT_ID":"2025-048G","EPOCH":"2025-10-16T13:23:38.652864","MEAN_MOTION":15.7087356,"ECCENTRICITY":0.0001797,"INCLINATION":42.9991,"RA_OF_ASC_NODE":108.6171,"ARG_OF_PERICENTER":259.8669,"MEAN_ANOMALY":100.1996,"EPHEMERIS_TYPE":0,"CLASSIFICATION_TYPE":"U","NORAD_CAT_ID":63189,"ELEMENT_SET_NO":999,"REV_AT_EPOCH":3585,"BSTAR":0.0012009,"MEAN_MOTION_DOT":0.001568,"MEAN_MOTION_DDOT":0},{"OBJECT_NAME":"STARLINK-11637 [DTC]","OBJECT_ID":"2025-048H","EPOCH":"2025-10-16T12:39:16.490880","MEAN_MOTION":15.70858659,"ECCENTRICITY":0.0002724,"INCLINATION":42.9997,"RA_OF_ASC_NODE":109.265,"ARG_OF_PERICENTER":301.8389,"MEAN_ANOMALY":58.2214,"EPHEMERIS_TYPE":0,"CLASSIFICATION_TYPE":"U","NORAD_CAT_ID":63190,"ELEMENT_SET_NO":999,"REV_AT_EPOCH":3584,"BSTAR":0.002627,"MEAN_MOTION_DOT":0.00351571,"MEAN_MOTION_DDOT":0},{"OBJECT_NAME":"STARLINK-11647 [DTC]","OBJECT_ID":"2025-048J","EPOCH":"2025-10-16T13:16:00.211008","MEAN_MOTION":15.70824245,"ECCENTRICITY":0.0004091,"INCLINATION":42.9991,"RA_OF_ASC_NODE":108.5717,"ARG_OF_PERICENTER":324.5776,"MEAN_ANOMALY":35.482,"EPHEMERIS_TYPE":0,"CLASSIFICATION_TYPE":"U","NORAD_CAT_ID":63191,"ELEMENT_SET_NO":999,"REV_AT_EPOCH":3585,"BSTAR":0.0021881,"MEAN_MOTION_DOT":0.00290203,"MEAN_MOTION_DDOT":0},{"OBJECT_NAME":"STARLINK-11643 [DTC]","OBJECT_ID":"2025-048K","EPOCH":"2025-10-16T13:31:17.741856","MEAN_MOTION":15.7084346,"ECCENTRICITY":0.0001793,"INCLINATION":42.9996,"RA_OF_ASC_NODE":108.6591,"ARG_OF_PERICENTER":303.0122,"MEAN_ANOMALY":57.0573,"EPHEMERIS_TYPE":0,"CLASSIFICATION_TYPE":"U","NORAD_CAT_ID":63192,"ELEMENT_SET_NO":999,"REV_AT_EPOCH":3585,"BSTAR":0.0021336,"MEAN_MOTION_DOT":0.00282887,"MEAN_MOTION_DDOT":0},{"OBJECT_NAME":"STARLINK-11635 [DTC]","OBJECT_ID":"2025-048L","EPOCH":"2025-10-16T13:00:42.484032","MEAN_MOTION":15.7087086,"ECCENTRICITY":0.0002156,"INCLINATION":42.9995,"RA_OF_ASC_NODE":108.4876,"ARG_OF_PERICENTER":304.4667,"MEAN_ANOMALY":55.5997,"EPHEMERIS_TYPE":0,"CLASSIFICATION_TYPE":"U","NORAD_CAT_ID":63193,"ELEMENT_SET_NO":999,"REV_AT_EPOCH":3585,"BSTAR":0.0011133,"MEAN_MOTION_DOT":0.00145121,"MEAN_MOTION_DDOT":0},{"OBJECT_NAME":"STARLINK-11636 [DTC]","OBJECT_ID":"2025-048M","EPOCH":"2025-10-16T19:52:49.256832","MEAN_MOTION":15.70888223,"ECCENTRICITY":0.0002446,"INCLINATION":42.9996,"RA_OF_ASC_NODE":107.2128,"ARG_OF_PERICENTER":290.8866,"MEAN_ANOMALY":69.174,"EPHEMERIS_TYPE":0,"CLASSIFICATION_TYPE":"U","NORAD_CAT_ID":63194,"ELEMENT_SET_NO":999,"REV_AT_EPOCH":3589,"BSTAR":0.0020307,"MEAN_MOTION_DOT":0.00269283,"MEAN_MOTION_DDOT":0},{"OBJECT_NAME":"STARLINK-11631 [DTC]","OBJECT_ID":"2025-048N","EPOCH":"2025-10-16T12:45:36.415008","MEAN_MOTION":15.70852397,"ECCENTRICITY":0.0002578,"INCLINATION":42.9994,"RA_OF_ASC_NODE":109.2987,"ARG_OF_PERICENTER":307.0462,"MEAN_ANOMALY":53.0169,"EPHEMERIS_TYPE":0,"CLASSIFICATION_TYPE":"U","NORAD_CAT_ID":63195,"ELEMENT_SET_NO":999,"REV_AT_EPOCH":3584,"BSTAR":0.0018675,"MEAN_MOTION_DOT":0.00246562,"MEAN_MOTION_DDOT":0},{"OBJECT_NAME":"STARLINK-32946","OBJECT_ID":"2025-048P","EPOCH":"2025-10-16T10:18:00.408960","MEAN_MOTION":15.27628388,"ECCENTRICITY":0.0002261,"INCLINATION":43.0036,"RA_OF_ASC_NODE":184.0365,"ARG_OF_PERICENTER":278.4265,"MEAN_ANOMALY":81.633,"EPHEMERIS_TYPE":0,"CLASSIFICATION_TYPE":"U","NORAD_CAT_ID":63196,"ELEMENT_SET_NO":999,"REV_AT_EPOCH":3498,"BSTAR":0.0011239,"MEAN_MOTION_DOT":0.0003084,"MEAN_MOTION_DDOT":0},{"OBJECT_NAME":"STARLINK-32960","OBJECT_ID":"2025-048Q","EPOCH":"2025-10-17T00:00:02.000160","MEAN_MOTION":15.27533116,"ECCENTRICITY":0.0001385,"INCLINATION":43.0018,"RA_OF_ASC_NODE":176.9689,"ARG_OF_PERICENTER":271.4475,"MEAN_ANOMALY":130.437,"EPHEMERIS_TYPE":0,"CLASSIFICATION_TYPE":"U","NORAD_CAT_ID":63197,"ELEMENT_SET_NO":999,"REV_AT_EPOCH":588,"BSTAR":0.0015229,"MEAN_MOTION_DOT":0.00041822,"MEAN_MOTION_DDOT":0},{"OBJECT_NAME":"STARLINK-32904","OBJECT_ID":"2025-048R","EPOCH":"2025-10-16T02:29:32.114688","MEAN_MOTION":15.27583655,"ECCENTRICITY":0.00021699,"INCLINATION":43.005,"RA_OF_ASC_NODE":181.5181,"ARG_OF_PERICENTER":281.6289,"MEAN_ANOMALY":78.4319,"EPHEMERIS_TYPE":0,"CLASSIFICATION_TYPE":"U","NORAD_CAT_ID":63198,"ELEMENT_SET_NO":999,"REV_AT_EPOCH":3498,"BSTAR":0.0018703863,"MEAN_MOTION_DOT":0.00051574,"MEAN_MOTION_DDOT":0},{"OBJECT_NAME":"STARLINK-32931","OBJECT_ID":"2025-048S","EPOCH":"2025-10-16T09:21:20.243232","MEAN_MOTION":15.27611521,"ECCENTRICITY":5.22e-5,"INCLINATION":42.9989,"RA_OF_ASC_NODE":180.2207,"ARG_OF_PERICENTER":252.9944,"MEAN_ANOMALY":107.085,"EPHEMERIS_TYPE":0,"CLASSIFICATION_TYPE":"U","NORAD_CAT_ID":63199,"ELEMENT_SET_NO":999,"REV_AT_EPOCH":3502,"BSTAR":0.00038265,"MEAN_MOTION_DOT":0.00010293,"MEAN_MOTION_DDOT":0},{"OBJECT_NAME":"STARLINK-32934","OBJECT_ID":"2025-048T","EPOCH":"2025-10-16T02:38:48.251616","MEAN_MOTION":15.27634324,"ECCENTRICITY":0.00010836,"INCLINATION":42.9991,"RA_OF_ASC_NODE":181.5649,"ARG_OF_PERICENTER":281.9757,"MEAN_ANOMALY":78.0973,"EPHEMERIS_TYPE":0,"CLASSIFICATION_TYPE":"U","NORAD_CAT_ID":63200,"ELEMENT_SET_NO":999,"REV_AT_EPOCH":3498,"BSTAR":0.0013213147,"MEAN_MOTION_DOT":0.00036337,"MEAN_MOTION_DDOT":0},{"OBJECT_NAME":"STARLINK-32938","OBJECT_ID":"2025-048U","EPOCH":"2025-10-16T09:26:53.503584","MEAN_MOTION":15.27601174,"ECCENTRICITY":6.25e-5,"INCLINATION":42.9994,"RA_OF_ASC_NODE":180.2483,"ARG_OF_PERICENTER":336.9525,"MEAN_ANOMALY":23.1299,"EPHEMERIS_TYPE":0,"CLASSIFICATION_TYPE":"U","NORAD_CAT_ID":63201,"ELEMENT_SET_NO":999,"REV_AT_EPOCH":3502,"BSTAR":0.0014598,"MEAN_MOTION_DOT":0.00040155,"MEAN_MOTION_DDOT":0},{"OBJECT_NAME":"STARLINK-32935","OBJECT_ID":"2025-048V","EPOCH":"2025-10-16T09:58:20.883072","MEAN_MOTION":15.27569688,"ECCENTRICITY":0.000103,"INCLINATION":42.9952,"RA_OF_ASC_NODE":180.4253,"ARG_OF_PERICENTER":283.9148,"MEAN_ANOMALY":76.1589,"EPHEMERIS_TYPE":0,"CLASSIFICATION_TYPE":"U","NORAD_CAT_ID":63202,"ELEMENT_SET_NO":999,"REV_AT_EPOCH":3502,"BSTAR":0.0010384,"MEAN_MOTION_DOT":0.00028412,"MEAN_MOTION_DDOT":0}]
