STARLINK-11622 [DTC]    
1 63187U 25048E   25289.97144394  .00492953  00000+0  35960-2 0  9997
2 63187  42.9997 106.5754 0002523 284.7691  75.2897 15.71012877 35919
STARLINK-11642 [DTC]    
1 63188U 25048F   25289.56870183  .00265402  00000+0  20027-2 0  9990
2 63188  42.9995 108.7038 0001842 229.9210 130.1496 15.70885454 35855
STARLINK-11639 [DTC]    
1 63189U 25048G   25289.55808626  .00156800  00000+0  12009-2 0  9995
2 63189  42.9991 108.6171 0001797 259.8669 100.1996 15.70873560 35855
STARLINK-11637 [DTC]    
1 63190U 25048H   25289.52727420  .00351571  00000+0  26270-2 0  9993
2 63190  42.9997 109.2650 0002724 301.8389  58.2214 15.70858659 35847
STARLINK-11647 [DTC]    
1 63191U 25048J   25289.55278022  .00290203  00000+0  21881-2 0  9993
2 63191  42.9991 108.5717 0004091 324.5776  35.4820 15.70824245 35854
STARLINK-11643 [DTC]    
1 63192U 25048K   25289.56339979  .00282887  00000+0  21336-2 0  9998
2 63192  42.9996 108.6591 0001793 303.0122  57.0573 15.70843460 35859
STARLINK-11635 [DTC]    
1 63193U 25048L   25289.54215838  .00145121  00000+0  11133-2 0  9997
2 63193  42.9995 108.4876 0002156 304.4667  55.5997 15.70870860 35853
STARLINK-11636 [DTC]    
1 63194U 25048M   25289.82834788  .00269283  00000+0  20307-2 0  9999
2 63194  42.9996 107.2128 0002446 290.8866  69.1740 15.70888223 35896
STARLINK-11631 [DTC]    
1 63195U 25048N   25289.53167147  .00246562  00000+0  18675-2 0  9996
2 63195  42.9994 109.2987 0002578 307.0462  53.0169 15.70852397 35844
STARLINK-32946          
1 63196U 25048P   25289.42917140  .00030840  00000+0  11239-2 0  9990
2 63196  43.0036 184.0365 0002261 278.4265  81.6330 15.27628388 34980
STARLINK-32960          
1 63197U 25048Q   25290.00002315  .00041822  00000+0  15229-2 0  9991
2 63197  43.0018 176.9689 0001385 271.4475 130.4370 15.27533116  5880
STARLINK-32904          
1 63198U 25048R   25289.10384392  .00051574  00000+0  18704-2 0  9995
2 63198  43.0050 181.5181 0002169 281.6289  78.4319 15.27583655 34983
STARLINK-32931          
1 63199U 25048S   25289.38981763  .00010293  00000+0  38265-3 0  9999
2 63199  42.9989 180.2207 0000522 252.9944 107.0850 15.27611521 35027
STARLINK-32934          
1 63200U 25048T   25289.11028069  .00036337  00000+0  13213-2 0  9996
2 63200  42.9991 181.5649 0001083 281.9757  78.0973 15.27634324 34987
STARLINK-32938          
1 63201U 25048U   25289.39367481  .00040155  00000+0  14598-2 0  9991
2 63201  42.9994 180.2483 0000625 336.9525  23.1299 15.27601174 35023
STARLINK-32935          
1 63202U 25048V   25289.41551948  .00028412  00000+0  10384-2 0  9999
2 63202  42.9952 180.4253 0001030 283.9148  76.1589 15.27569688 35021
